STARLINK-3330           
1 50836U 22001AK  26033.24589985  .00005253  00000+0  34784-3 0  9994
2 50836  53.2186 338.0128 0001583  97.4884 262.6288 15.08847723224817
STARLINK-3318           
1 50837U 22001AL  26033.22748295  .00001057  00000+0  84507-4 0  9991
2 50837  53.2178 328.3162 0001452  92.1201 267.9958 15.08845180225053
STARLINK-3320           
1 50839U 22001AN  26033.24496554  .00003248  00000+0  22194-3 0  9990
2 50839  53.2185 338.2384 0001373  98.5215 261.5933 15.08858291224909
STARLINK-3295           
1 50840U 22001AP  26033.10880742  .00001048  00000+0  83890-4 0  9990
2 50840  53.2181 338.8519 0001373  60.5925 299.5205 15.08850699224884
STARLINK-3300           
1 50841U 22001AQ  26033.25232748  .00001023  00000+0  82371-4 0  9990
2 50841  53.2185 338.2052 0001225  99.0559 261.0572 15.08842527224917
STARLINK-3302           
1 50842U 22001AR  26033.23760850  .00000682  00000+0  60940-4 0  9997
2 50842  53.2191 338.2725 0001167  89.3453 270.7673 15.08840071224902
STARLINK-3325           
1 50843U 22001AS  26033.25002315  .00099395  00000+0  43858-2 0  9991
2 50843  53.2181 337.5783 0001278  76.6515 202.2472 15.20963309  5840
STARLINK-3326           
1 50844U 22001AT  26033.22656714 -.00000215  00000+0  45277-5 0  9991
2 50844  53.2190 338.3229 0000548  54.4850 305.6194 15.08849951224912
STARLINK-3230           
1 50845U 22001AU  26033.27073022  .00000732  00000+0  64081-4 0  9998
2 50845  53.2188 338.1254 0001483  96.2051 263.9110 15.08847577224929
STARLINK-3308           
1 50846U 22001AV  26033.23394374  .00002456  00000+0  17234-3 0  9993
2 50846  53.2187 338.4038 0001160  83.4616 276.6508 15.08841985224917
STARLINK-3315           
1 50848U 22001AX  26033.28545223  .00001202  00000+0  93611-4 0  9993
2 50848  53.2179 338.0586 0001253  89.1225 270.9911 15.08839092224928
STARLINK-3311           
1 50849U 22001AY  26033.23024965  .00001943  00000+0  14008-3 0  9998
2 50849  53.2201 338.3070 0001594 101.3656 258.7515 15.08850631224914
STARLINK-3312           
1 50850U 22001AZ  26033.03521739  .00001568  00000+0  11666-3 0  9999
2 50850  53.2200 299.1840 0001473  95.1497 264.9663 15.08825084225988
STARLINK-3314           
1 50851U 22001BA  26033.20815276 -.00002794  00000+0 -15741-3 0  9993
2 50851  53.2197 338.3284 0002478 127.6169 232.5048 15.08853032224919
STARLINK-3366           
1 51104U 22005A   26033.30108850 -.00000993  00000+0 -44341-4 0  9991
2 51104  53.2164  87.9892 0001182  87.1310 272.9818 15.08840137223538
STARLINK-3350           
1 51105U 22005B   26033.14285148 -.00000099  00000+0  11843-4 0  9997
2 51105  53.2175  88.6957 0001399  91.4553 268.6600 15.08840855223514
