[{"OBJECT_NAME":"STARLINK-3330","OBJECT_ID":"2022-001AK","EPOCH":"2026-02-02T05:54:05.747040","MEAN_MOTION":15.08847723,"ECCENTRICITY":0.00015835,"INCLINATION":53.2186,"RA_OF_ASC_NODE":338.0128,"ARG_OF_PERICENTER":97.4884,"MEAN_ANOMALY":262.6288,"EPHEMERIS_TYPE":0,"CLASSIFICATION_TYPE":"U","NORAD_CAT_ID":50836,"ELEMENT_SET_NO":999,"REV_AT_EPOCH":22481,"BSTAR":0.00034784412,"MEAN_MOTION_DOT":5.253e-5,"MEAN_MOTION_DDOT":0},{"OBJECT_NAME":"STARLINK-3318","OBJECT_ID":"2022-001AL","EPOCH":"2026-02-02T05:27:34.526880","MEAN_MOTION":15.0884518,"ECCENTRICITY":0.00014526,"INCLINATION":53.2178,"RA_OF_ASC_NODE":328.3162,"ARG_OF_PERICENTER":92.1201,"MEAN_ANOMALY":267.9958,"EPHEMERIS_TYPE":0,"CLASSIFICATION_TYPE":"U","NORAD_CAT_ID":50837,"ELEMENT_SET_NO":999,"REV_AT_EPOCH":22505,"BSTAR":8.450745e-5,"MEAN_MOTION_DOT":1.057e-5,"MEAN_MOTION_DDOT":0},{"OBJECT_NAME":"STARLINK-3320","OBJECT_ID":"2022-001AN","EPOCH":"2026-02-02T05:52:45.022656","MEAN_MOTION":15.08858291,"ECCENTRICITY":0.0001373,"INCLINATION":53.2185,"RA_OF_ASC_NODE":338.2384,"ARG_OF_PERICENTER":98.5215,"MEAN_ANOMALY":261.5933,"EPHEMERIS_TYPE":0,"CLASSIFICATION_TYPE":"U","NORAD_CAT_ID":50839,"ELEMENT_SET_NO":999,"REV_AT_EPOCH":22490,"BSTAR":0.00022194389,"MEAN_MOTION_DOT":3.248e-5,"MEAN_MOTION_DDOT":0},{"OBJECT_NAME":"STARLINK-3295","OBJECT_ID":"2022-001AP","EPOCH":"2026-02-02T02:36:40.961088","MEAN_MOTION":15.08850699,"ECCENTRICITY":0.00013735,"INCLINATION":53.2181,"RA_OF_ASC_NODE":338.8519,"ARG_OF_PERICENTER":60.5925,"MEAN_ANOMALY":299.5205,"EPHEMERIS_TYPE":0,"CLASSIFICATION_TYPE":"U","NORAD_CAT_ID":50840,"ELEMENT_SET_NO":999,"REV_AT_EPOCH":22488,"BSTAR":8.3890075e-5,"MEAN_MOTION_DOT":1.048e-5,"MEAN_MOTION_DDOT":0},{"OBJECT_NAME":"STARLINK-3300","OBJECT_ID":"2022-001AQ","EPOCH":"2026-02-02T06:03:21.094272","MEAN_MOTION":15.08842527,"ECCENTRICITY":0.00012252,"INCLINATION":53.2185,"RA_OF_ASC_NODE":338.2052,"ARG_OF_PERICENTER":99.0559,"MEAN_ANOMALY":261.0572,"EPHEMERIS_TYPE":0,"CLASSIFICATION_TYPE":"U","NORAD_CAT_ID":50841,"ELEMENT_SET_NO":999,"REV_AT_EPOCH":22491,"BSTAR":8.2370793e-5,"MEAN_MOTION_DOT":1.023e-5,"MEAN_MOTION_DDOT":0},{"OBJECT_NAME":"STARLINK-3302","OBJECT_ID":"2022-001AR","EPOCH":"2026-02-02T05:42:09.374400","MEAN_MOTION":15.08840071,"ECCENTRICITY":0.00011679,"INCLINATION":53.2191,"RA_OF_ASC_NODE":338.2725,"ARG_OF_PERICENTER":89.3453,"MEAN_ANOMALY":270.7673,"EPHEMERIS_TYPE":0,"CLASSIFICATION_TYPE":"U","NORAD_CAT_ID":50842,"ELEMENT_SET_NO":999,"REV_AT_EPOCH":22490,"BSTAR":6.0940331e-5,"MEAN_MOTION_DOT":6.82e-6,"MEAN_MOTION_DDOT":0},{"OBJECT_NAME":"STARLINK-3325","OBJECT_ID":"2022-001AS","EPOCH":"2026-02-02T06:00:02.000160","MEAN_MOTION":15.20963309,"ECCENTRICITY":0.0001278,"INCLINATION":53.2181,"RA_OF_ASC_NODE":337.5783,"ARG_OF_PERICENTER":76.6515,"MEAN_ANOMALY":202.2472,"EPHEMERIS_TYPE":0,"CLASSIFICATION_TYPE":"U","NORAD_CAT_ID":50843,"ELEMENT_SET_NO":999,"REV_AT_EPOCH":584,"BSTAR":0.0043858245,"MEAN_MOTION_DOT":0.00099395,"MEAN_MOTION_DDOT":0},{"OBJECT_NAME":"STARLINK-3326","OBJECT_ID":"2022-001AT","EPOCH":"2026-02-02T05:26:15.400896","MEAN_MOTION":15.08849951,"ECCENTRICITY":5.484e-5,"INCLINATION":53.219,"RA_OF_ASC_NODE":338.3229,"ARG_OF_PERICENTER":54.485,"MEAN_ANOMALY":305.6194,"EPHEMERIS_TYPE":0,"CLASSIFICATION_TYPE":"U","NORAD_CAT_ID":50844,"ELEMENT_SET_NO":999,"REV_AT_EPOCH":22491,"BSTAR":4.527727e-6,"MEAN_MOTION_DOT":-2.15e-6,"MEAN_MOTION_DDOT":0},{"OBJECT_NAME":"STARLINK-3230","OBJECT_ID":"2022-001AU","EPOCH":"2026-02-02T06:29:51.091008","MEAN_MOTION":15.08847577,"ECCENTRICITY":0.00014838,"INCLINATION":53.2188,"RA_OF_ASC_NODE":338.1254,"ARG_OF_PERICENTER":96.2051,"MEAN_ANOMALY":263.911,"EPHEMERIS_TYPE":0,"CLASSIFICATION_TYPE":"U","NORAD_CAT_ID":50845,"ELEMENT_SET_NO":999,"REV_AT_EPOCH":22492,"BSTAR":6.408092e-5,"MEAN_MOTION_DOT":7.32e-6,"MEAN_MOTION_DDOT":0},{"OBJECT_NAME":"STARLINK-3308","OBJECT_ID":"2022-001AV","EPOCH":"2026-02-02T05:36:52.739136","MEAN_MOTION":15.08841985,"ECCENTRICITY":0.000116,"INCLINATION":53.2187,"RA_OF_ASC_NODE":338.4038,"ARG_OF_PERICENTER":83.4616,"MEAN_ANOMALY":276.6508,"EPHEMERIS_TYPE":0,"CLASSIFICATION_TYPE":"U","NORAD_CAT_ID":50846,"ELEMENT_SET_NO":999,"REV_AT_EPOCH":22491,"BSTAR":0.00017233923,"MEAN_MOTION_DOT":2.456e-5,"MEAN_MOTION_DDOT":0},{"OBJECT_NAME":"STARLINK-3315","OBJECT_ID":"2022-001AX","EPOCH":"2026-02-02T06:51:03.072672","MEAN_MOTION":15.08839092,"ECCENTRICITY":0.00012539,"INCLINATION":53.2179,"RA_OF_ASC_NODE":338.0586,"ARG_OF_PERICENTER":89.1225,"MEAN_ANOMALY":270.9911,"EPHEMERIS_TYPE":0,"CLASSIFICATION_TYPE":"U","NORAD_CAT_ID":50848,"ELEMENT_SET_NO":999,"REV_AT_EPOCH":22492,"BSTAR":9.361066e-5,"MEAN_MOTION_DOT":1.202e-5,"MEAN_MOTION_DDOT":0},{"OBJECT_NAME":"STARLINK-3311","OBJECT_ID":"2022-001AY","EPOCH":"2026-02-02T05:31:33.569760","MEAN_MOTION":15.08850631,"ECCENTRICITY":0.00015947,"INCLINATION":53.2201,"RA_OF_ASC_NODE":338.307,"ARG_OF_PERICENTER":101.3656,"MEAN_ANOMALY":258.7515,"EPHEMERIS_TYPE":0,"CLASSIFICATION_TYPE":"U","NORAD_CAT_ID":50849,"ELEMENT_SET_NO":999,"REV_AT_EPOCH":22491,"BSTAR":0.00014007614,"MEAN_MOTION_DOT":1.943e-5,"MEAN_MOTION_DDOT":0},{"OBJECT_NAME":"STARLINK-3312","OBJECT_ID":"2022-001AZ","EPOCH":"2026-02-02T00:50:42.782496","MEAN_MOTION":15.08825084,"ECCENTRICITY":0.00014735,"INCLINATION":53.22,"RA_OF_ASC_NODE":299.184,"ARG_OF_PERICENTER":95.1497,"MEAN_ANOMALY":264.9663,"EPHEMERIS_TYPE":0,"CLASSIFICATION_TYPE":"U","NORAD_CAT_ID":50850,"ELEMENT_SET_NO":999,"REV_AT_EPOCH":22598,"BSTAR":0.00011665995,"MEAN_MOTION_DOT":1.568e-5,"MEAN_MOTION_DDOT":0},{"OBJECT_NAME":"STARLINK-3314","OBJECT_ID":"2022-001BA","EPOCH":"2026-02-02T04:59:44.398464","MEAN_MOTION":15.08853032,"ECCENTRICITY":0.00024783,"INCLINATION":53.2197,"RA_OF_ASC_NODE":338.3284,"ARG_OF_PERICENTER":127.6169,"MEAN_ANOMALY":232.5048,"EPHEMERIS_TYPE":0,"CLASSIFICATION_TYPE":"U","NORAD_CAT_ID":50851,"ELEMENT_SET_NO":999,"REV_AT_EPOCH":22491,"BSTAR":-0.00015740501,"MEAN_MOTION_DOT":-2.794e-5,"MEAN_MOTION_DDOT":0},{"OBJECT_NAME":"STARLINK-3366","OBJECT_ID":"2022-005A","EPOCH":"2026-02-02T07:13:34.046400","MEAN_MOTION":15.08840137,"ECCENTRICITY":0.00011822,"INCLINATION":53.2164,"RA_OF_ASC_NODE":87.9892,"ARG_OF_PERICENTER":87.131,"MEAN_ANOMALY":272.9818,"EPHEMERIS_TYPE":0,"CLASSIFICATION_TYPE":"U","NORAD_CAT_ID":51104,"ELEMENT_SET_NO":999,"REV_AT_EPOCH":22353,"BSTAR":-4.4340715e-5,"MEAN_MOTION_DOT":-9.93e-6,"MEAN_MOTION_DDOT":0},{"OBJECT_NAME":"STARLINK-3350","OBJECT_ID":"2022-005B","EPOCH":"2026-02-02T03:25:42.367872","MEAN_MOTION":15.08840855,"ECCENTRICITY":0.00013996,"INCLINATION":53.2175,"RA_OF_ASC_NODE":88.6957,"ARG_OF_PERICENTER":91.4553,"MEAN_ANOMALY":268.66,"EPHEMERIS_TYPE":0,"CLASSIFICATION_TYPE":"U","NORAD_CAT_ID":51105,"ELEMENT_SET_NO":999,"REV_AT_EPOCH":22351,"BSTAR":1.1843422e-5,"MEAN_MOTION_DOT":-9.9e-7,"MEAN_MOTION_DDOT":0}]
